OBJECT_NAME,OBJECT_ID,EPOCH,MEAN_MOTION,ECCENTRICITY,INCLINATION,RA_OF_ASC_NODE,ARG_OF_PERICENTER,MEAN_ANOMALY,EPHEMERIS_TYPE,CLASSIFICATION_TYPE,NORAD_CAT_ID,ELEMENT_SET_NO,REV_AT_EPOCH,BSTAR,MEAN_MOTION_DOT,MEAN_MOTION_DDOT
LEMUR-2-FINNIAN,2025-276DX,2026-07-19T18:08:46.805856,15.00644953,.00070806,97.5356,270.7347,342.5290,17.5690,0,U,66782,999,2488,.10688527E-3,.1294E-4,0
LEMUR-2-STARLIGHT,2025-276DY,2026-07-20T03:22:57.723168,14.99392316,.00146138,97.5235,270.6546,32.3707,327.8410,0,U,66783,999,3513,.31682306E-3,.3829E-4,0
LEMUR-2-TARTIFLETTE,2025-276DZ,2026-07-20T03:20:44.447712,14.99374313,.00138445,97.5233,270.6609,41.0576,319.1687,0,U,66784,999,3513,.30427804E-3,.3673E-4,0
LEMUR-2-VUKASIN,2025-276EA,2026-07-19T16:56:13.229952,15.00567775,.00023389,97.5206,270.6077,39.5355,320.6040,0,U,66785,999,3502,.17838822E-3,.2194E-4,0
LEMUR-2-HOTSPUR-TOM,2025-276EB,2026-07-20T03:13:09.498144,14.99270649,.00135992,97.5212,270.6281,32.8551,327.3515,0,U,66786,999,3506,.26146265E-3,.3139E-4,0
LEMUR-2-MYRA,2025-276EC,2026-07-20T03:18:04.328640,15.00621723,.00185732,97.5221,270.9458,39.1220,321.1343,0,U,66787,999,3515,.26939967E-3,.3359E-4,0
LEMUR-2 FIKRETDENGIZ,2026-004A,2026-07-20T00:11:07.688832,14.88536708,.00098467,97.8034,199.0680,42.2614,317.9360,0,U,67363,999,2816,.2593724E-3,.2359E-4,0
TWILIGHT-1 OBJECT B,2026-004B,2026-07-20T05:58:32.545056,14.87803482,.0009365,97.8078,199.3036,31.2536,328.9235,0,U,67364,999,2820,.10958569E-3,.947E-5,0
LEMUR-2-MARIO-SOUSA,2026-004C,2026-07-19T23:41:08.600640,14.88748918,.00094881,97.8007,199.0425,43.7275,316.4692,0,U,67365,999,2817,.23305677E-3,.2125E-4,0
LEMUR-2-SONNENBLUME,2026-004E,2026-07-19T23:46:32.460672,14.88467068,.00091245,97.8003,199.0165,44.7510,315.4441,0,U,67367,999,2817,.14903589E-3,.133E-4,0
LEMUR-2-WOBLER,2026-004F,2026-07-19T23:29:58.170336,14.88716826,.00091357,97.8057,199.1613,36.1772,324.0062,0,U,67368,999,2817,.20769632E-3,.1886E-4,0
LEMUR-2-GRAM-E-SUE,2026-004H,2026-07-20T07:23:07.869408,14.88602931,.00083014,97.7991,199.3457,46.9707,313.2204,0,U,67370,999,2822,.14320821E-3,.128E-4,0
LEMUR-2-KATIE,2026-004AA,2026-07-19T23:46:11.169984,14.90273384,.00030448,97.8049,199.6005,21.7882,338.3465,0,U,67387,999,2819,.24030914E-3,.2278E-4,0
LEMUR-2-HCS-BAZUS,2026-004AB,2026-07-20T06:10:30.941184,14.90282861,.00025198,97.8038,199.8419,22.6097,337.5231,0,U,67388,999,2823,.21400585E-3,.2023E-4,0
